IRIDIUM 112             
1 41925U 17003J   25018.31164262  .00000456  00000+0  15571-3 0  9999
2 41925  86.3981 303.4557 0001999  78.0982 282.0438 14.34219866419473
IRIDIUM 111             
1 41926U 17003K   25018.50827160  .00000663  00000+0  22981-3 0  9997
2 41926  86.3981 303.4330 0002116  87.5736 272.5702 14.34216286419489
IRIDIUM 113             
1 42803U 17039A   25018.48822743  .00000335  00000+0  11253-3 0  9996
2 42803  86.4011 177.2619 0001523  85.5529 274.5841 14.34218631397415
IRIDIUM 123             
1 42804U 17039B   25018.52970719  .00000165  00000+0  51746-4 0  9992
2 42804  86.3971 208.6756 0001983  98.0554 262.0867 14.34219939396183
IRIDIUM 120             
1 42805U 17039C   25018.48188658  .00000718  00000+0  24940-3 0  9990
2 42805  86.3999 177.1130 0002094  94.6914 265.4521 14.34213203397404
IRIDIUM 115             
1 42806U 17039D   25018.47575359  .00000901  00000+0  26186-3 0  9996
2 42806  86.4537 177.1732 0001858 106.5381 253.6024 14.43281108400029
IRIDIUM 118             
1 42807U 17039E   25018.56142490  .00000165  00000+0  51720-4 0  9998
2 42807  86.3971 208.6627 0001977  90.1533 269.9889 14.34219259396181
IRIDIUM 117             
1 42808U 17039F   25018.58044694  .00000092  00000+0  25831-4 0  9991
2 42808  86.3970 208.6172 0001952 100.4981 259.6435 14.34217707396214
